satname,norad_id,inclination_deg,eccentricity,mean_motion_rev_per_day,perigee_km,apogee_km,l1,l2
STARLINK-1572,46060,53.1599,0.0001251,15.30194208,474.37500683450526,476.089719849213,1 46060U 20055AK  26201.44888752 -.00000561  00000+0 -68175-5 0  9990,2 46060  53.1599 217.4598 0001251  93.4145 266.6999 15.30194208329364
STARLINK-1573,46061,53.1597,0.0001471,15.31695871,469.74483197088466,471.7597752039992,1 46061U 20055AL  26201.31983890  .00002829  00000+0  10290-3 0  9996,2 46061  53.1597 216.7606 0001471 117.0868 243.0284 15.31695871329396
STARLINK-1577,46063,53.1567,0.0001264,15.31704719,469.8602318941994,471.59162444244066,1 46063U 20055AN  26201.86983012  .00004830  00000+0  16728-3 0  9990,2 46063  53.1567 214.1947 0001264  73.8081 286.3060 15.31704719329474
STARLINK-1583,46064,53.1589,0.0001351,15.31699329,469.81671189017834,471.6672789947479,1 46064U 20055AP  26201.23135887  .00001935  00000+0  74123-4 0  9998,2 46064  53.1589 217.6705 0001351  77.2365 282.8787 15.31699329329364
STARLINK-1525,46066,53.048,0.000498,15.46724966,422.9256952446349,429.7029287513851,1 46066U 20055AR  26201.91597607  .00089888  00000+0  17560-2 0  9990,2 46066  53.0480 190.2214 0004980  21.9700 338.1520 15.46724966329784
STARLINK-1536,46070,53.1588,0.0001079,15.31707301,469.9792399315411,471.457222890479,1 46070U 20055AV  26201.23264447  .00000271  00000+0  20481-4 0  9990,2 46070  53.1588 205.0493 0001079  90.2170 269.8955 15.31707301329543
STARLINK-1542,46073,53.1592,0.000137,15.31704902,469.7870885112734,471.6636768041226,1 46073U 20055AY  26201.71377119  .00000702  00000+0  34383-4 0  9992,2 46073  53.1592 205.7769 0001370  73.0479 287.0672 15.31704902329563
STARLINK-1549,46074,53.0478,0.0002728,15.34756709,459.77733919064394,463.5091232848081,1 46074U 20055AZ  26201.70951873  .00024385  00000+0  72222-3 0  9993,2 46074  53.0478 202.1376 0002728  50.9082 309.2162 15.34756709329592
STARLINK-1551,46075,53.1594,0.00013,15.31707393,469.8276060215585,471.6083083104213,1 46075U 20055BA  26201.41939848  .00000427  00000+0  25515-4 0  9995,2 46075  53.1594 204.1153 0001300  80.3002 279.8146 15.31707393329565
STARLINK-1552,46076,53.1593,0.0001212,15.31702071,469.90373854578047,471.56390483295763,1 46076U 20055BB  26201.73161359 -.00000096  00000+0  86568-5 0  9994,2 46076  53.1593 202.2462 0001212  84.2359 275.8781 15.31702071329601
STARLINK-1559,46077,53.0207,0.0004491,15.42105222,436.8351279882363,442.95908622323896,1 46077U 20055BC  26201.29269542  .00031575  00000+0  73315-3 0  9998,2 46077  53.0207 170.5309 0004491  50.0238 310.1160 15.42105222329969
STARLINK-1566,46079,53.1582,0.0001256,15.3170202,469.8737555230791,471.5941919116776,1 46079U 20055BE  26201.41000499 -.00000023  00000+0  11028-4 0  9997,2 46079  53.1582 203.5976 0001256  93.9977 266.1168 15.31702020329579
STARLINK-1568,46080,53.0563,0.0002914,15.57742225,392.21955886196156,396.16647279518656,1 46080U 20055BF  26201.90997174  .00036784  00000+0  49106-3 0  9997,2 46080  53.0563 111.7780 0002914 128.3780 231.7493 15.57742225330883
STARLINK-1578,46082,53.1595,0.0001268,15.31710067,469.8415523890044,471.5784199847021,1 46082U 20055BH  26201.21864300 -.00000156  00000+0  67422-5 0  9995,2 46082  53.1595 205.0067 0001268  98.8491 261.2654 15.31710067329535
STARLINK-1579,46083,53.1572,0.0001168,15.3169472,469.95578400470185,471.55568534752274,1 46083U 20055BJ  26201.72694367  .00001606  00000+0  63518-4 0  9997,2 46083  53.1572 202.1716 0001168 105.5552 254.5578 15.31694720329619
STARLINK-1622,46128,52.9967,0.001147,16.29279763,186.9372786382055,202.0148530112083,1 46128U 20057M   26201.92496397  .03910493  12113-4  87695-3 0  9994,2 46128  52.9967 273.7282 0011470 331.4126  28.6285 16.29279763328449
STARLINK-1623,46129,53.0344,0.0005949,15.88854579,301.51703647328395,309.4692195996222,1 46129U 20057N   26202.00002315  .00125577  00000+0  42956-3 0  9994,2 46129  53.0344 317.2089 0005949 321.6973 168.2349 15.88854579  5975
STARLINK-1596,46141,53.0316,0.0002302,15.66980321,365.99652704872096,369.10224105993984,1 46141U 20057AA  26201.91171437  .00055459  00000+0  51365-3 0  9994,2 46141  53.0316 305.6997 0002302 292.2417  67.8354 15.66980321328017
STARLINK-1597,46142,53.0393,0.0005952,15.87101661,306.43247650175454,314.39452701904975,1 46142U 20057AB  26202.00002315  .00171409  00000+0  63523-3 0  9997,2 46142  53.0393 357.2284 0005952 286.2470 204.0801 15.87101661  6000
STARLINK-1608,46146,53.1569,0.0004308,15.39915334,443.41945828992357,449.29944443241584,1 46146U 20057AF  26201.86866314  .00034246  00000+0  85381-3 0  9994,2 46146  53.1569  46.9575 0004308 123.5425 236.5992 15.39915334326623
STARLINK-1595,46159,53.0361,0.000412,15.83560604,317.6210060917847,323.14058475521415,1 46159U 20057AU  26202.00002315  .00116954  00000+0  51856-3 0  9995,2 46159  53.0361   0.8414 0004120 271.8967 340.7854 15.83560604  6004
STARLINK-1598,46160,53.0433,0.0005385,15.8139458,322.8855606432153,330.10645039015617,1 46160U 20057AV  26201.70523884  .00111233  00000+0  54607-3 0  9994,2 46160  53.0433 348.8282 0005385 321.7554  38.3085 15.81394580328633
STARLINK-1626,46167,53.0352,0.0007763,15.87708435,303.51828702623516,313.900284569565,1 46167U 20057BC  26202.00002315  .00114494  00000+0  41498-3 0  9992,2 46167  53.0352 355.3558 0007763 301.3870 331.9650 15.87708435  6015
STARLINK-1633,46171,53.0246,0.0014826,16.09906546,237.27709686827802,256.92224865034314,1 46171U 20057BG  26201.74799441  .00761662  32666-3  78263-3 0  9992,2 46171  53.0246 313.6438 0014826 329.5492  30.4678 16.09906546329136
STARLINK-1640,46173,53.0362,0.0004289,15.83851665,316.68747989149506,322.43276448290726,1 46173U 20057BJ  26202.00002315  .00136777  00000+0  59624-3 0  9997,2 46173  53.0362   1.8236 0004289 276.4831 154.0095 15.83851665  5968
STARLINK-1641,46174,53.046,0.0004131,15.69308243,358.09278388769053,363.66055698220407,1 46174U 20057BK  26201.73525112  .00055603  00000+0  46823-3 0  9997,2 46174  53.0460 358.5404 0004131 302.7420  57.3198 15.69308243327251
STARLINK-1695,46329,53.037,0.0006698,15.8814265,303.0123606832567,311.968427140142,1 46329U 20062E   26202.00002315  .00221428  00000+0  77408-3 0  9994,2 46329  53.0370  38.2281 0006698 276.0002 229.1920 15.88142650  6016
STARLINK-1719,46331,53.0232,0.0005471,16.07376389,250.42186478604071,257.67880416742446,1 46331U 20062G   26201.93392334  .01133020  75399-3  13992-2 0  9996,2 46331  53.0232  34.8854 0005471 274.4951  85.5457 16.07376389325841
